{"type": "FeatureCollection", "features": [{"type": "Feature", "properties": {"norad_id": 24946, "name": "IRIDIUM 33", "group": "iridium-33-debris", "lat": -7.094721116090339, "lon": -113.49474055739555, "alt_km": 773.4261269011531, "timestamp": "2025-12-17T21:39:46.074654+00:00", "meta": {"OBJECT_NAME": "IRIDIUM 33", "OBJECT_ID": "1997-051C", "EPOCH": "2025-12-17T14:06:00.693792", "MEAN_MOTION": 14.35040862, "ECCENTRICITY": 0.00076164, "INCLINATION": 86.3868, "RA_OF_ASC_NODE": 66.1869, "ARG_OF_PERICENTER": 183.6428, "MEAN_ANOMALY": 176.4714, "EPHEMERIS_TYPE": 0, "CLASSIFICATION_TYPE": "U", "NORAD_CAT_ID": 24946, "ELEMENT_SET_NO": 999, "REV_AT_EPOCH": 47904, "BSTAR": 9.6711512e-05, "MEAN_MOTION_DOT": 2.95e-06, "MEAN_MOTION_DDOT": 0}, "tle": {"line1": "1 24946U 97051C   25351.58750803  .00000295  00000+0  96712-4 0  9993", "line2": "2 24946  86.3868  66.1869 0007616 183.6428 176.4714 14.35040862479041"}}, "geometry": {"type": "Point", "coordinates": [-113.49474055739555, -7.094721116090339]}}, {"type": "Feature", "properties": {"norad_id": 33773, "name": "IRIDIUM 33 DEB", "group": "iridium-33-debris", "lat": -63.18900543792303, "lon": 51.24718470119652, "alt_km": 763.9113500682688, "timestamp": "2025-12-17T21:39:46.074698+00:00", "meta": {"OBJECT_NAME": "IRIDIUM 33 DEB", "OBJECT_ID": "1997-051L", "EPOCH": "2025-12-17T15:18:03.797280", "MEAN_MOTION": 14.43267546, "ECCENTRICITY": 0.00129084, "INCLINATION": 86.4007, "RA_OF_ASC_NODE": 58.5141, "ARG_OF_PERICENTER": 132.086, "MEAN_ANOMALY": 228.1441, "EPHEMERIS_TYPE": 0, "CLASSIFICATION_TYPE": "U", "NORAD_CAT_ID": 33773, "ELEMENT_SET_NO": 999, "REV_AT_EPOCH": 88418, "BSTAR": 0.0002460168, "MEAN_MOTION_DOT": 8.48e-06, "MEAN_MOTION_DDOT": 0}, "tle": {"line1": "1 33773U 97051L   25351.63754395  .00000848  00000+0  24602-3 0  9999", "line2": "2 33773  86.4007  58.5141 0012908 132.0860 228.1441 14.43267546884187"}}, "geometry": {"type": "Point", "coordinates": [51.24718470119652, -63.18900543792303]}}, {"type": "Feature", "properties": {"norad_id": 33775, "name": "IRIDIUM 33 DEB", "group": "iridium-33-debris", "lat": -13.247989538728286, "lon": 46.491603724438434, "alt_km": 767.5507385683022, "timestamp": "2025-12-17T21:39:46.074712+00:00", "meta": {"OBJECT_NAME": "IRIDIUM 33 DEB", "OBJECT_ID": "1997-051N", "EPOCH": "2025-12-17T15:38:54.873600", "MEAN_MOTION": 14.41478888, "ECCENTRICITY": 0.00147915, "INCLINATION": 86.3633, "RA_OF_ASC_NODE": 47.4565, "ARG_OF_PERICENTER": 139.7829, "MEAN_ANOMALY": 347.5614, "EPHEMERIS_TYPE": 0, "CLASSIFICATION_TYPE": "U", "NORAD_CAT_ID": 33775, "ELEMENT_SET_NO": 999, "REV_AT_EPOCH": 88211, "BSTAR": 0.00025546522, "MEAN_MOTION_DOT": 8.5e-06, "MEAN_MOTION_DDOT": 0}, "tle": {"line1": "1 33775U 97051N   25351.65202400  .00000850  00000+0  25547-3 0  9990", "line2": "2 33775  86.3633  47.4565 0014791 139.7829 347.5614 14.41478888882111"}}, "geometry": {"type": "Point", "coordinates": [46.491603724438434, -13.247989538728286]}}, {"type": "Feature", "properties": {"norad_id": 33776, "name": "IRIDIUM 33 DEB", "group": "iridium-33-debris", "lat": 23.319691241249046, "lon": -102.94559071518225, "alt_km": 753.7232611604077, "timestamp": "2025-12-17T21:39:46.074725+00:00", "meta": {"OBJECT_NAME": "IRIDIUM 33 DEB", "OBJECT_ID": "1997-051P", "EPOCH": "2025-12-17T12:38:19.775328", "MEAN_MOTION": 14.38243576, "ECCENTRICITY": 0.00149227, "INCLINATION": 86.4037, "RA_OF_ASC_NODE": 78.7658, "ARG_OF_PERICENTER": 174.7645, "MEAN_ANOMALY": 196.2457, "EPHEMERIS_TYPE": 0, "CLASSIFICATION_TYPE": "U", "NORAD_CAT_ID": 33776, "ELEMENT_SET_NO": 999, "REV_AT_EPOCH": 88151, "BSTAR": 0.00023132368, "MEAN_MOTION_DOT": 7.23e-06, "MEAN_MOTION_DDOT": 0}, "tle": {"line1": "1 33776U 97051P   25351.52661777  .00000723  00000+0  23132-3 0  9990", "line2": "2 33776  86.4037  78.7658 0014922 174.7645 196.2457 14.38243576881519"}}, "geometry": {"type": "Point", "coordinates": [-102.94559071518225, 23.319691241249046]}}, {"type": "Feature", "properties": {"norad_id": 33777, "name": "IRIDIUM 33 DEB", "group": "iridium-33-debris", "lat": -85.39177179083147, "lon": -95.24841856356241, "alt_km": 711.7840756077885, "timestamp": "2025-12-17T21:39:46.074737+00:00", "meta": {"OBJECT_NAME": "IRIDIUM 33 DEB", "OBJECT_ID": "1997-051Q", "EPOCH": "2025-12-17T13:50:23.310816", "MEAN_MOTION": 14.55648515, "ECCENTRICITY": 0.00055002, "INCLINATION": 86.3783, "RA_OF_ASC_NODE": 33.0997, "ARG_OF_PERICENTER": 226.9281, "MEAN_ANOMALY": 133.1467, "EPHEMERIS_TYPE": 0, "CLASSIFICATION_TYPE": "U", "NORAD_CAT_ID": 33777, "ELEMENT_SET_NO": 999, "REV_AT_EPOCH": 88604, "BSTAR": 0.00061320951, "MEAN_MOTION_DOT": 2.697e-05, "MEAN_MOTION_DDOT": 0}, "tle": {"line1": "1 33777U 97051Q   25351.57665869  .00002697  00000+0  61321-3 0  9996", "line2": "2 33777  86.3783  33.0997 0005500 226.9281 133.1467 14.55648515886040"}}, "geometry": {"type": "Point", "coordinates": [-95.24841856356241, -85.39177179083147]}}, {"type": "Feature", "properties": {"norad_id": 33850, "name": "IRIDIUM 33 DEB", "group": "iridium-33-debris", "lat": -19.708260223453966, "lon": 26.646164503749777, "alt_km": 765.407373235169, "timestamp": "2025-12-17T21:39:46.074748+00:00", "meta": {"OBJECT_NAME": "IRIDIUM 33 DEB", "OBJECT_ID": "1997-051T", "EPOCH": "2025-12-17T15:39:31.146912", "MEAN_MOTION": 14.4215674, "ECCENTRICITY": 0.00127702, "INCLINATION": 86.3412, "RA_OF_ASC_NODE": 28.0671, "ARG_OF_PERICENTER": 146.141, "MEAN_ANOMALY": 336.2518, "EPHEMERIS_TYPE": 0, "CLASSIFICATION_TYPE": "U", "NORAD_CAT_ID": 33850, "ELEMENT_SET_NO": 999, "REV_AT_EPOCH": 88223, "BSTAR": 0.00026741621, "MEAN_MOTION_DOT": 9e-06, "MEAN_MOTION_DDOT": 0}, "tle": {"line1": "1 33850U 97051T   25351.65244383  .00000900  00000+0  26742-3 0  9994", "line2": "2 33850  86.3412  28.0671 0012770 146.1410 336.2518 14.42156740882238"}}, "geometry": {"type": "Point", "coordinates": [26.646164503749777, -19.708260223453966]}}, {"type": "Feature", "properties": {"norad_id": 33853, "name": "IRIDIUM 33 DEB", "group": "iridium-33-debris", "lat": -73.32800374896244, "lon": -25.96479546497093, "alt_km": 841.3379919492736, "timestamp": "2025-12-17T21:39:46.074759+00:00", "meta": {"OBJECT_NAME": "IRIDIUM 33 DEB", "OBJECT_ID": "1997-051W", "EPOCH": "2025-12-17T10:44:52.473120", "MEAN_MOTION": 13.99089298, "ECCENTRICITY": 0.02070958, "INCLINATION": 85.9998, "RA_OF_ASC_NODE": 347.7466, "ARG_OF_PERICENTER": 221.2578, "MEAN_ANOMALY": 293.5733, "EPHEMERIS_TYPE": 0, "CLASSIFICATION_TYPE": "U", "NORAD_CAT_ID": 33853, "ELEMENT_SET_NO": 999, "REV_AT_EPOCH": 85411, "BSTAR": 0.001410633, "MEAN_MOTION_DOT": 2.469e-05, "MEAN_MOTION_DDOT": 0}, "tle": {"line1": "1 33853U 97051W   25351.44782955  .00002469  00000+0  14106-2 0  9998", "line2": "2 33853  85.9998 347.7466 0207095 221.2578 293.5733 13.99089298854118"}}, "geometry": {"type": "Point", "coordinates": [-25.96479546497093, -73.32800374896244]}}, {"type": "Feature", "properties": {"norad_id": 33860, "name": "IRIDIUM 33 DEB", "group": "iridium-33-debris", "lat": 22.789991898661274, "lon": 26.476164712426346, "alt_km": 665.5489394417473, "timestamp": "2025-12-17T21:39:46.074769+00:00", "meta": {"OBJECT_NAME": "IRIDIUM 33 DEB", "OBJECT_ID": "1997-051AD", "EPOCH": "2025-12-17T14:04:30.366912", "MEAN_MOTION": 14.67427414, "ECCENTRICITY": 0.00068357, "INCLINATION": 86.3831, "RA_OF_ASC_NODE": 25.0932, "ARG_OF_PERICENTER": 340.0038, "MEAN_ANOMALY": 173.8145, "EPHEMERIS_TYPE": 0, "CLASSIFICATION_TYPE": "U", "NORAD_CAT_ID": 33860, "ELEMENT_SET_NO": 999, "REV_AT_EPOCH": 88793, "BSTAR": 0.00085669112, "MEAN_MOTION_DOT": 4.869e-05, "MEAN_MOTION_DDOT": 0}, "tle": {"line1": "1 33860U 97051AD  25351.58646258  .00004869  00000+0  85669-3 0  9995", "line2": "2 33860  86.3831  25.0932 0006835 340.0038 173.8145 14.67427414887936"}}, "geometry": {"type": "Point", "coordinates": [26.476164712426346, 22.789991898661274]}}, {"type": "Feature", "properties": {"norad_id": 33862, "name": "IRIDIUM 33 DEB", "group": "iridium-33-debris", "lat": 81.2835308226025, "lon": -168.92590243610883, "alt_km": 629.1416791577485, "timestamp": "2025-12-17T21:39:46.074779+00:00", "meta": {"OBJECT_NAME": "IRIDIUM 33 DEB", "OBJECT_ID": "1997-051AF", "EPOCH": "2025-12-17T15:13:23.215008", "MEAN_MOTION": 14.69553333, "ECCENTRICITY": 0.00529911, "INCLINATION": 86.409, "RA_OF_ASC_NODE": 35.3724, "ARG_OF_PERICENTER": 52.7991, "MEAN_ANOMALY": 66.1029, "EPHEMERIS_TYPE": 0, "CLASSIFICATION_TYPE": "U", "NORAD_CAT_ID": 33862, "ELEMENT_SET_NO": 999, "REV_AT_EPOCH": 88895, "BSTAR": 0.0010243514, "MEAN_MOTION_DOT": 6.236e-05, "MEAN_MOTION_DDOT": 0}, "tle": {"line1": "1 33862U 97051AF  25351.63429647  .00006236  00000+0  10244-2 0  9990", "line2": "2 33862  86.4090  35.3724 0052991  52.7991  66.1029 14.69553333888958"}}, "geometry": {"type": "Point", "coordinates": [-168.92590243610883, 81.2835308226025]}}, {"type": "Feature", "properties": {"norad_id": 33866, "name": "IRIDIUM 33 DEB", "group": "iridium-33-debris", "lat": 60.1937635646211, "lon": 97.33698689765505, "alt_km": 792.9782543148485, "timestamp": "2025-12-17T21:39:46.074789+00:00", "meta": {"OBJECT_NAME": "IRIDIUM 33 DEB", "OBJECT_ID": "1997-051AK", "EPOCH": "2025-12-17T13:00:26.354880", "MEAN_MOTION": 14.25290361, "ECCENTRICITY": 0.01148301, "INCLINATION": 86.3002, "RA_OF_ASC_NODE": 91.004, "ARG_OF_PERICENTER": 146.1647, "MEAN_ANOMALY": 226.2743, "EPHEMERIS_TYPE": 0, "CLASSIFICATION_TYPE": "U", "NORAD_CAT_ID": 33866, "ELEMENT_SET_NO": 999, "REV_AT_EPOCH": 86879, "BSTAR": 0.00045771981, "MEAN_MOTION_DOT": 1.174e-05, "MEAN_MOTION_DDOT": 0}, "tle": {"line1": "1 33866U 97051AK  25351.54197170  .00001174  00000+0  45772-3 0  9998", "line2": "2 33866  86.3002  91.0040 0114830 146.1647 226.2743 14.25290361868794"}}, "geometry": {"type": "Point", "coordinates": [97.33698689765505, 60.1937635646211]}}]}